COSMOS 1953             
1 19210U 88050A   16019.46500319  .00001045  00000-0  72608-4 0  9996
2 19210  82.5179 172.1516 0013039 209.7707 150.2779 15.04464718500420
SL-8 R/B                
1 19257U 88053B   16019.16204380  .00000095  00000-0  40577-4 0  9990
2 19257  74.0494  83.3092 0019144 102.3876 321.3901 14.37279123444779
COSMOS 1975             
1 19573U 88093A   16019.40140917  .00001188  00000-0  85317-4 0  9992
2 19573  82.5223 123.2811 0013323 248.1813 111.7996 15.03372923482447
SL-14 R/B               
1 19574U 88093B   16019.18994380  .00000176  00000-0  18583-4 0  9996
2 19574  82.5321 266.5162 0022189  18.2900  96.1108 14.83107910473114
SL-16 R/B               
1 19650U 88102B   16019.14417476 -.00000182  00000-0 -68043-4 0  9999
2 19650  71.0001  18.0626 0016653 250.0903 109.8426 14.15729838403099
INTERCOSMOS 24          
1 20261U 89080A   16019.42568758  .00000295  00000-0  84949-4 0  9992
2 20261  82.5949 343.3475 1204650 203.6493 150.4501 12.55694823201356
SL-14 R/B               
1 20262U 89080C   16018.63730857  .00000258  00000-0  74948-4 0  9993
2 20262  82.5921  26.2656 1237485 351.9296   6.3389 12.48774359197368
DELTA 1 R/B             
1 20323U 89089B   16019.15204172  .00000132  00000-0  43815-4 0  9994
2 20323  97.0688  42.1124 0070445 261.0937  98.2280 14.48078112380187
DELTA 2 R/B(1)          
1 20453U 90008B   16018.44592872  .00002760  00000-0  16375-3 0  9998
2 20453  35.6278  15.6985 0299278 205.4930 153.0751 14.80590507371643
COSMOS 2058             
1 20465U 90010A   16019.50335355  .00001007  00000-0  85173-4 0  9999
2 20465  82.4887  22.5297 0014554 223.3473 136.6605 14.96964314408327
SL-14 R/B               
1 20466U 90010B   16018.47482644  .00000204  00000-0  23141-4 0  9994
2 20466  82.5051 135.1080 0019456 229.5557 130.3961 14.81177911401153
SL-14 R/B               
1 20511U 90018B   16019.22989164  .00000130  00000-0  14165-4 0  9990
2 20511  82.5222  73.6420 0017607   6.9185  54.6781 14.79840767395904
HST                     
1 20580U 90037B   16018.56424384  .00001297  00000-0  70779-4 0  9999
2 20580  28.4689 173.2085 0003019  33.7667  42.9625 15.08073769212341
SL-16 R/B               
1 20625U 90046B   16018.95528889 -.00000289  00000-0 -12530-3 0  9999
2 20625  70.9992 150.4802 0014106 180.1401 318.1573 14.14589609324970
COSMOS 2084             
1 20663U 90055A   16018.79566034  .00000449  00000-0  58949-4 0  9998
2 20663  62.7935 147.5291 0108588  37.6749 323.1885 14.90954121382948
SL-6 R/B(2)             
1 20666U 90055D   16019.52092820  .00000445  00000-0  56617-4 0  9996
2 20666  62.7846  65.4186 0124379  58.2498 303.0644 14.91339024384402
SL-8 R/B                
1 20775U 90078B   16018.78257857  .00005092  00000-0  25733-3 0  9999
2 20775  82.9315 109.6325 0604488 126.1819 239.6856 14.27090055275157
SL-8 R/B                
1 21088U 91006B   16019.18759685  .00000121  00000-0  10719-3 0  9996
2 21088  82.9405  43.0706 0021683 324.9691 101.6683 13.77020742254721
OKEAN-3                 
1 21397U 91039A   16018.82675548  .00000665  00000-0  62809-4 0  9991
2 21397  82.5221 267.7921 0018550 155.9382 204.2709 14.92023935332921
COSMOS 2151             
1 21422U 91042A   16019.49771471  .00000653  00000-0  62654-4 0  9995
2 21422  82.4997  16.1191 0013524 206.9886 153.0632 14.91494195331773
SL-14 R/B               
1 21423U 91042B   16018.75904083  .00000179  00000-0  20680-4 0  9997
2 21423  82.4936  83.0589 0018788 135.3117 224.9614 14.79594775326368
ERS-1                   
1 21574U 91050A   16018.98442310  .00000163  00000-0  68309-4 0  9991
2 21574  98.3966 330.2937 0034107  55.7288 304.7121 14.37438153283571
ARIANE 40 R/B           
1 21610U 91050F   16018.24202139  .00000065  00000-0  34637-4 0  9992
2 21610  98.6779  63.5153 0003931  56.6884 344.8816 14.40692717285824
INTERCOSMOS 25          
1 21819U 91086A   16019.47414675  .00000251  00000-0  41125-4 0  9995
2 21819  82.5581  12.4162 1527514 101.7091 275.8835 12.04001835 50324
SL-14 R/B               
1 21820U 91086B   16019.51418282  .00000403  00000-0  82110-4 0  9998
2 21820  82.5613  62.0376 1577002 269.9084  72.1988 11.93088080 45400
SL-8 R/B                
1 21876U 92008B   16017.91637214  .00000028  00000-0  13376-4 0  9995
2 21876  82.9285 140.9050 0035410  37.3936 101.9027 13.75570409200174
SL-8 R/B                
1 21938U 92020B   16018.52462238 -.00000050  00000-0 -67697-4 0  9990
2 21938  82.9281  23.2910 0028922 188.2995 283.4777 13.75232685192414
SL-16 R/B               
1 22220U 92076B   16019.20433855 -.00000230  00000-0 -91589-4 0  9992
2 22220  71.0003  63.2359 0014062 328.1961  87.9314 14.16389102197859
SL-16 R/B               
1 22285U 92093B   16018.53320830 -.00000283  00000-0 -12173-3 0  9994
2 22285  71.0192 213.9801 0005368 219.2584 140.8150 14.14985982189590
COSMOS 2228             
1 22286U 92094A   16019.45097304  .00000675  00000-0  71860-4 0  9997
2 22286  82.5231 139.2952 0021377  33.4990 326.7574 14.87304022245974
SL-16 R/B               
1 22566U 93016B   16019.18837056 -.00000182  00000-0 -69696-4 0  9998
2 22566  71.0072  67.9131 0011387 208.5022 151.5479 14.14916829178425
COSMOS 2242             
1 22626U 93024A   16018.52901413  .00000653  00000-0  69454-4 0  9993
2 22626  82.5226 167.8279 0019932  35.7949 324.4599 14.87310652229495
SL-16 R/B               
1 22803U 93059B   16019.09164242 -.00000112  00000-0 -31896-4 0  9993
2 22803  70.9894 254.8315 0014864  90.2867 269.9959 14.16732329155320
ARIANE 40 R/B           
1 22830U 93061H   16019.54236815  .00000032  00000-0  29625-4 0  9998
2 22830  98.8803  17.0669 0010829 356.1256 111.0808 14.31393603164621
COSMOS 2278             
1 23087U 94023A   16019.18423494  .00000174  00000-0  11700-3 0  9994
2 23087  71.0553 355.3141 0011277 279.0836 161.7858 14.13709042121717
SL-16 R/B               
1 23088U 94023B   16019.14985247 -.00000293  00000-0 -12739-3 0  9997
2 23088  71.0001 283.0335 0003550 204.2787 155.8169 14.14632378122705
SL-16 R/B               
1 23343U 94074B   16019.15269536  .00000085  00000-0  19801-4 0  9999
2 23343  98.2069  43.3171 0005658 286.3830 113.6475 14.76624509140820
SL-16 R/B               
1 23405U 94077B   16017.93744230  .00000096  00000-0  74033-4 0  9994
2 23405  70.9816 220.7976 0002702 333.3269  26.7714 14.15177812 92229
ERS-2                   
1 23560U 95021A   16018.81775412  .00004014  00000-0  20303-3 0  9994
2 23560  98.5081 298.8320 0002396 246.2987 113.7992 15.17739693 97121
ARIANE 40+ R/B          
1 23561U 95021B   16019.07483036  .00000151  00000-0  65553-4 0  9997
2 23561  98.7559   3.3693 0006859 352.5795  48.9682 14.37694740 87232
SL-16 R/B               
1 23705U 95058B   16018.49906047  .00000254  00000-0  15516-3 0  9991
2 23705  71.0217  30.9537 0012499 353.8297   6.2670 14.15078867 44237
SL-16 R/B               
1 24298U 96051B   16018.72256191 -.00000062  00000-0 -69910-5 0  9995
2 24298  70.8346  68.7036 0019156 232.6838 127.2537 14.12387992999032
ORBVIEW 2 (SEASTAR)     
1 24883U 97037A   16019.43011965  .00000111  00000-0  56138-4 0  9997
2 24883  98.5123 129.8250 0002559 165.2960 194.8299 14.33276245978162
SL-16 R/B               
1 25400U 98043G   16019.46567227  .00000028  00000-0  29614-4 0  9997
2 25400  98.4176 340.2111 0010036   9.6010 350.5360 14.25366350911745
SL-16 R/B               
1 25407U 98045B   16019.50005224 -.00000162  00000-0 -58069-4 0  9992
2 25407  71.0117  43.0064 0010374 271.3946  88.5988 14.15737916903339
ISS (ZARYA)             
1 25544U 98067A   16019.62322808  .00008799  00000-0  13782-3 0  9995
2 25544  51.6421  83.9080 0006401  38.1209  85.0400 15.54556296981714
SL-8 R/B                
1 25723U 99022C   16018.49462718  .00009948  00000-0  21150-3 0  9990
2 25723  48.4200  20.7836 0012683  75.3916  61.1306 15.45446823926495
CZ-4B R/B               
1 25732U 99025C   16018.60527553  .00000030  00000-0  36918-4 0  9997
2 25732  98.9609   8.8718 0038263 118.3558  15.7674 14.17595841863582
OKEAN-O                 
1 25860U 99039A   16018.86536117  .00000366  00000-0  60377-4 0  9996
2 25860  98.1246 352.6591 0001420  66.2611 315.5893 14.76261495887803
SL-16 R/B               
1 25861U 99039B   16018.88623509  .00000184  00000-0  32686-4 0  9991
2 25861  98.0330 343.0989 0014566 305.1314  79.4532 14.78260452889646
TERRA                   
1 25994U 99068A   16019.45838527  .00000174  00000-0  48756-4 0  9996
2 25994  98.2034  95.8907 0000952  94.2299 265.9012 14.57111467855714
SL-14 R/B               
1 26874U 01032B   16019.22457117  .00019749  00000-0  14090-3 0  9996
2 26874  82.4631  85.2259 0009481  60.8609 299.3602 15.73565634812002
ENVISAT                 
1 27386U 02009A   16019.23111054  .00000024  00000-0  21764-4 0  9991
2 27386  98.3054  77.8581 0001089  73.2630 286.8675 14.37851623727077
IDEFIX & ARIANE 42P R/B 
1 27422U 02021B   16018.48604058 -.00000001  00000-0  15506-4 0  9996
2 27422  98.2398  41.2680 0011655 330.2988  29.7532 14.29227754713013
AQUA                    
1 27424U 02022A   16018.55033729  .00000338  00000-0  85062-4 0  9994
2 27424  98.2187 321.2786 0000830  61.6667 117.8105 14.57105471729183
CZ-4B R/B               
1 27432U 02024C   16018.89208341  .00000028  00000-0  37901-4 0  9991
2 27432  98.9158 345.6063 0051347  52.4234 326.9087 14.14001060705977
MIDORI II (ADEOS-II)    
1 27597U 02056A   16019.49799904  .00000139  00000-0  73687-4 0  9999
2 27597  98.3064   6.9192 0002031  66.8892  43.2874 14.27171920682002
H-2A R/B                
1 27601U 02056E   16019.34374970  .00000070  00000-0  40934-4 0  9994
2 27601  98.4346  97.2342 0072529  21.6092  20.0136 14.31679013684144
CZ-4B R/B               
1 28059U 03049C   16019.23401116  .00000059  00000-0  26326-4 0  9992
2 28059  98.6333 246.7290 0050620  17.6790  90.4163 14.52415331648922
CZ-2C R/B               
1 28222U 04012C   16019.52284984  .00002013  00000-0  13136-3 0  9995
2 28222  97.4544 342.5212 0050716 148.8454 348.3284 15.07935671643013
